<?xml version="1.0" encoding="UTF-8"?>
<ndm xmlns:xsi="http://www.w3.org/2001/XMLSchema-instance" xsi:noNamespaceSchemaLocation="https://sanaregistry.org/r/ndmxml_unqualified/ndmxml-2.0.0-master-2.0.xsd">
<omm id="CCSDS_OMM_VERS" version="2.0">
<header><CREATION_DATE/><ORIGINATOR/></header><body><segment><metadata><OBJECT_NAME>GLOBALSTAR M084</OBJECT_NAME><OBJECT_ID>2011-080A</OBJECT_ID><CENTER_NAME>EARTH</CENTER_NAME><REF_FRAME>TEME</REF_FRAME><TIME_SYSTEM>UTC</TIME_SYSTEM><MEAN_ELEMENT_THEORY>SGP4</MEAN_ELEMENT_THEORY></metadata><data><meanElements><EPOCH>2026-01-12T13:57:43.132608</EPOCH><MEAN_MOTION>12.62267101</MEAN_MOTION><ECCENTRICITY>.0001169</ECCENTRICITY><INCLINATION>52.0001</INCLINATION><RA_OF_ASC_NODE>131.0010</RA_OF_ASC_NODE><ARG_OF_PERICENTER>115.0169</ARG_OF_PERICENTER><MEAN_ANOMALY>257.8553</MEAN_ANOMALY></meanElements><tleParameters><EPHEMERIS_TYPE>0</EPHEMERIS_TYPE><CLASSIFICATION_TYPE>U</CLASSIFICATION_TYPE><NORAD_CAT_ID>38040</NORAD_CAT_ID><ELEMENT_SET_NO>999</ELEMENT_SET_NO><REV_AT_EPOCH>64911</REV_AT_EPOCH><BSTAR>-.55602E-6</BSTAR><MEAN_MOTION_DOT>-.104E-5</MEAN_MOTION_DOT><MEAN_MOTION_DDOT>0</MEAN_MOTION_DDOT></tleParameters></data></segment></body></omm>
<omm id="CCSDS_OMM_VERS" version="2.0">
<header><CREATION_DATE/><ORIGINATOR/></header><body><segment><metadata><OBJECT_NAME>GLOBALSTAR M080</OBJECT_NAME><OBJECT_ID>2011-080B</OBJECT_ID><CENTER_NAME>EARTH</CENTER_NAME><REF_FRAME>TEME</REF_FRAME><TIME_SYSTEM>UTC</TIME_SYSTEM><MEAN_ELEMENT_THEORY>SGP4</MEAN_ELEMENT_THEORY></metadata><data><meanElements><EPOCH>2026-01-12T17:52:49.207872</EPOCH><MEAN_MOTION>12.62265416</MEAN_MOTION><ECCENTRICITY>.0000446</ECCENTRICITY><INCLINATION>52.0052</INCLINATION><RA_OF_ASC_NODE>132.1686</RA_OF_ASC_NODE><ARG_OF_PERICENTER>117.3586</ARG_OF_PERICENTER><MEAN_ANOMALY>47.5375</MEAN_ANOMALY></meanElements><tleParameters><EPHEMERIS_TYPE>0</EPHEMERIS_TYPE><CLASSIFICATION_TYPE>U</CLASSIFICATION_TYPE><NORAD_CAT_ID>38041</NORAD_CAT_ID><ELEMENT_SET_NO>999</ELEMENT_SET_NO><REV_AT_EPOCH>64925</REV_AT_EPOCH><BSTAR>-.20014E-4</BSTAR><MEAN_MOTION_DOT>-.107E-5</MEAN_MOTION_DOT><MEAN_MOTION_DDOT>0</MEAN_MOTION_DDOT></tleParameters></data></segment></body></omm>
<omm id="CCSDS_OMM_VERS" version="2.0">
<header><CREATION_DATE/><ORIGINATOR/></header><body><segment><metadata><OBJECT_NAME>GLOBALSTAR M082</OBJECT_NAME><OBJECT_ID>2011-080C</OBJECT_ID><CENTER_NAME>EARTH</CENTER_NAME><REF_FRAME>TEME</REF_FRAME><TIME_SYSTEM>UTC</TIME_SYSTEM><MEAN_ELEMENT_THEORY>SGP4</MEAN_ELEMENT_THEORY></metadata><data><meanElements><EPOCH>2026-01-12T16:08:02.062176</EPOCH><MEAN_MOTION>12.62266580</MEAN_MOTION><ECCENTRICITY>.0000324</ECCENTRICITY><INCLINATION>52.0083</INCLINATION><RA_OF_ASC_NODE>87.8753</RA_OF_ASC_NODE><ARG_OF_PERICENTER>129.2633</ARG_OF_PERICENTER><MEAN_ANOMALY>354.5460</MEAN_ANOMALY></meanElements><tleParameters><EPHEMERIS_TYPE>0</EPHEMERIS_TYPE><CLASSIFICATION_TYPE>U</CLASSIFICATION_TYPE><NORAD_CAT_ID>38042</NORAD_CAT_ID><ELEMENT_SET_NO>999</ELEMENT_SET_NO><REV_AT_EPOCH>64995</REV_AT_EPOCH><BSTAR>.74503E-5</BSTAR><MEAN_MOTION_DOT>-.102E-5</MEAN_MOTION_DOT><MEAN_MOTION_DDOT>0</MEAN_MOTION_DDOT></tleParameters></data></segment></body></omm>
<omm id="CCSDS_OMM_VERS" version="2.0">
<header><CREATION_DATE/><ORIGINATOR/></header><body><segment><metadata><OBJECT_NAME>GLOBALSTAR M092</OBJECT_NAME><OBJECT_ID>2011-080D</OBJECT_ID><CENTER_NAME>EARTH</CENTER_NAME><REF_FRAME>TEME</REF_FRAME><TIME_SYSTEM>UTC</TIME_SYSTEM><MEAN_ELEMENT_THEORY>SGP4</MEAN_ELEMENT_THEORY></metadata><data><meanElements><EPOCH>2026-01-12T19:22:37.575840</EPOCH><MEAN_MOTION>12.62269340</MEAN_MOTION><ECCENTRICITY>.0001034</ECCENTRICITY><INCLINATION>52.0060</INCLINATION><RA_OF_ASC_NODE>177.8510</RA_OF_ASC_NODE><ARG_OF_PERICENTER>96.3391</ARG_OF_PERICENTER><MEAN_ANOMALY>41.6888</MEAN_ANOMALY></meanElements><tleParameters><EPHEMERIS_TYPE>0</EPHEMERIS_TYPE><CLASSIFICATION_TYPE>U</CLASSIFICATION_TYPE><NORAD_CAT_ID>38043</NORAD_CAT_ID><ELEMENT_SET_NO>999</ELEMENT_SET_NO><REV_AT_EPOCH>64842</REV_AT_EPOCH><BSTAR>.13233E-3</BSTAR><MEAN_MOTION_DOT>-.8E-6</MEAN_MOTION_DOT><MEAN_MOTION_DDOT>0</MEAN_MOTION_DDOT></tleParameters></data></segment></body></omm>
<omm id="CCSDS_OMM_VERS" version="2.0">
<header><CREATION_DATE/><ORIGINATOR/></header><body><segment><metadata><OBJECT_NAME>GLOBALSTAR M090</OBJECT_NAME><OBJECT_ID>2011-080E</OBJECT_ID><CENTER_NAME>EARTH</CENTER_NAME><REF_FRAME>TEME</REF_FRAME><TIME_SYSTEM>UTC</TIME_SYSTEM><MEAN_ELEMENT_THEORY>SGP4</MEAN_ELEMENT_THEORY></metadata><data><meanElements><EPOCH>2026-01-12T15:01:45.331104</EPOCH><MEAN_MOTION>12.62265774</MEAN_MOTION><ECCENTRICITY>.0000544</ECCENTRICITY><INCLINATION>52.0128</INCLINATION><RA_OF_ASC_NODE>81.9216</RA_OF_ASC_NODE><ARG_OF_PERICENTER>107.0108</ARG_OF_PERICENTER><MEAN_ANOMALY>46.3419</MEAN_ANOMALY></meanElements><tleParameters><EPHEMERIS_TYPE>0</EPHEMERIS_TYPE><CLASSIFICATION_TYPE>U</CLASSIFICATION_TYPE><NORAD_CAT_ID>38044</NORAD_CAT_ID><ELEMENT_SET_NO>999</ELEMENT_SET_NO><REV_AT_EPOCH>65006</REV_AT_EPOCH><BSTAR>.26868E-4</BSTAR><MEAN_MOTION_DOT>-.99E-6</MEAN_MOTION_DOT><MEAN_MOTION_DDOT>0</MEAN_MOTION_DDOT></tleParameters></data></segment></body></omm>
<omm id="CCSDS_OMM_VERS" version="2.0">
<header><CREATION_DATE/><ORIGINATOR/></header><body><segment><metadata><OBJECT_NAME>GLOBALSTAR M086</OBJECT_NAME><OBJECT_ID>2011-080F</OBJECT_ID><CENTER_NAME>EARTH</CENTER_NAME><REF_FRAME>TEME</REF_FRAME><TIME_SYSTEM>UTC</TIME_SYSTEM><MEAN_ELEMENT_THEORY>SGP4</MEAN_ELEMENT_THEORY></metadata><data><meanElements><EPOCH>2026-01-12T15:25:51.235104</EPOCH><MEAN_MOTION>12.62282024</MEAN_MOTION><ECCENTRICITY>.0001521</ECCENTRICITY><INCLINATION>51.9907</INCLINATION><RA_OF_ASC_NODE>82.0538</RA_OF_ASC_NODE><ARG_OF_PERICENTER>81.0224</ARG_OF_PERICENTER><MEAN_ANOMALY>39.9807</MEAN_ANOMALY></meanElements><tleParameters><EPHEMERIS_TYPE>0</EPHEMERIS_TYPE><CLASSIFICATION_TYPE>U</CLASSIFICATION_TYPE><NORAD_CAT_ID>38045</NORAD_CAT_ID><ELEMENT_SET_NO>999</ELEMENT_SET_NO><REV_AT_EPOCH>65001</REV_AT_EPOCH><BSTAR>.10754E-4</BSTAR><MEAN_MOTION_DOT>-.102E-5</MEAN_MOTION_DOT><MEAN_MOTION_DDOT>0</MEAN_MOTION_DDOT></tleParameters></data></segment></body></omm>
<omm id="CCSDS_OMM_VERS" version="2.0">
<header><CREATION_DATE/><ORIGINATOR/></header><body><segment><metadata><OBJECT_NAME>GLOBALSTAR M097</OBJECT_NAME><OBJECT_ID>2013-005A</OBJECT_ID><CENTER_NAME>EARTH</CENTER_NAME><REF_FRAME>TEME</REF_FRAME><TIME_SYSTEM>UTC</TIME_SYSTEM><MEAN_ELEMENT_THEORY>SGP4</MEAN_ELEMENT_THEORY></metadata><data><meanElements><EPOCH>2026-01-12T15:28:32.295072</EPOCH><MEAN_MOTION>12.62268114</MEAN_MOTION><ECCENTRICITY>.0000462</ECCENTRICITY><INCLINATION>52.0070</INCLINATION><RA_OF_ASC_NODE>356.8195</RA_OF_ASC_NODE><ARG_OF_PERICENTER>55.9742</ARG_OF_PERICENTER><MEAN_ANOMALY>304.1168</MEAN_ANOMALY></meanElements><tleParameters><EPHEMERIS_TYPE>0</EPHEMERIS_TYPE><CLASSIFICATION_TYPE>U</CLASSIFICATION_TYPE><NORAD_CAT_ID>39072</NORAD_CAT_ID><ELEMENT_SET_NO>999</ELEMENT_SET_NO><REV_AT_EPOCH>59726</REV_AT_EPOCH><BSTAR>.55838E-4</BSTAR><MEAN_MOTION_DOT>-.94E-6</MEAN_MOTION_DOT><MEAN_MOTION_DDOT>0</MEAN_MOTION_DDOT></tleParameters></data></segment></body></omm>
<omm id="CCSDS_OMM_VERS" version="2.0">
<header><CREATION_DATE/><ORIGINATOR/></header><body><segment><metadata><OBJECT_NAME>GLOBALSTAR M093</OBJECT_NAME><OBJECT_ID>2013-005B</OBJECT_ID><CENTER_NAME>EARTH</CENTER_NAME><REF_FRAME>TEME</REF_FRAME><TIME_SYSTEM>UTC</TIME_SYSTEM><MEAN_ELEMENT_THEORY>SGP4</MEAN_ELEMENT_THEORY></metadata><data><meanElements><EPOCH>2026-01-12T14:50:51.896544</EPOCH><MEAN_MOTION>12.62271557</MEAN_MOTION><ECCENTRICITY>.0000644</ECCENTRICITY><INCLINATION>52.0128</INCLINATION><RA_OF_ASC_NODE>350.1881</RA_OF_ASC_NODE><ARG_OF_PERICENTER>34.8274</ARG_OF_PERICENTER><MEAN_ANOMALY>325.2635</MEAN_ANOMALY></meanElements><tleParameters><EPHEMERIS_TYPE>0</EPHEMERIS_TYPE><CLASSIFICATION_TYPE>U</CLASSIFICATION_TYPE><NORAD_CAT_ID>39073</NORAD_CAT_ID><ELEMENT_SET_NO>999</ELEMENT_SET_NO><REV_AT_EPOCH>59721</REV_AT_EPOCH><BSTAR>.64497E-4</BSTAR><MEAN_MOTION_DOT>-.92E-6</MEAN_MOTION_DOT><MEAN_MOTION_DDOT>0</MEAN_MOTION_DDOT></tleParameters></data></segment></body></omm>

</ndm>
