GLOBALSTAR M084         
1 38040U 11080A   26012.58174922 -.00000104  00000+0 -55602-6 0  9994
2 38040  52.0001 131.0010 0001169 115.0169 257.8553 12.62267101649115
GLOBALSTAR M080         
1 38041U 11080B   26012.74501398 -.00000107  00000+0 -20014-4 0  9994
2 38041  52.0052 132.1686 0000446 117.3586  47.5375 12.62265416649256
GLOBALSTAR M082         
1 38042U 11080C   26012.67224609 -.00000102  00000+0  74503-5 0  9991
2 38042  52.0083  87.8753 0000324 129.2633 354.5460 12.62266580649958
GLOBALSTAR M092         
1 38043U 11080D   26012.80737935 -.00000080  00000+0  13233-3 0  9994
2 38043  52.0060 177.8510 0001034  96.3391  41.6888 12.62269340648425
GLOBALSTAR M090         
1 38044U 11080E   26012.62621911 -.00000099  00000+0  26868-4 0  9990
2 38044  52.0128  81.9216 0000544 107.0108  46.3419 12.62265774650062
GLOBALSTAR M086         
1 38045U 11080F   26012.64295411 -.00000102  00000+0  10754-4 0  9997
2 38045  51.9907  82.0538 0001521  81.0224  39.9807 12.62282024650012
GLOBALSTAR M097         
1 39072U 13005A   26012.64481823 -.00000094  00000+0  55838-4 0  9993
2 39072  52.0070 356.8195 0000462  55.9742 304.1168 12.62268114597263
GLOBALSTAR M093         
1 39073U 13005B   26012.61865621 -.00000092  00000+0  64497-4 0  9992
2 39073  52.0128 350.1881 0000644  34.8274 325.2635 12.62271557597218
